start=new Date('2022-04-28T00:00:00.000Z').valueOf();
sats=[{"MEAN_MOTION_DDOT":"0.0000000000000","REV_AT_EPOCH":"5215","SITE":"AFETR","DECAY_DATE":null,"CENTER_NAME":"EARTH","APOAPSIS":"548.331","PERIOD":"95.593","NORAD_CAT_ID":"48572","OBJECT_NAME":"STARLINK-2222","LAUNCH_DATE":"2021-05-15","MEAN_ELEMENT_THEORY":"SGP4","ELEMENT_SET_NO":"999","MEAN_ANOMALY":"273.6748","REF_FRAME":"TEME","OBJECT_TYPE":"PAYLOAD","ARG_OF_PERICENTER":"86.4422","MEAN_MOTION":"15.06393213","CLASSIFICATION_TYPE":"U","TIME_SYSTEM":"UTC","OBJECT_ID":"2021-041V","EPOCH":"2022-04-27T02:19:25.254048","BSTAR":"-0.00002354900000","ECCENTRICITY":"0.00015830","RCS_SIZE":"LARGE","GP_ID":"202157387","EPHEMERIS_TYPE":"0","TLE_LINE1":"1 48572U 21041V   22117.09682007 -.00000632  00000-0 -23549-4 0  9999","SEMIMAJOR_AXIS":"6925.369","PERIAPSIS":"546.138","MEAN_MOTION_DOT":"-0.00000632","FILE":"3418497","TLE_LINE2":"2 48572  53.0575   3.0009 0001583  86.4422 273.6748 15.06393213 52151","RA_OF_ASC_NODE":"3.0009","COUNTRY_CODE":"US","INCLINATION":"53.0575"},{"MEAN_ELEMENT_THEORY":"SGP4","LAUNCH_DATE":"2021-05-15","ELEMENT_SET_NO":"999","MEAN_ANOMALY":"292.7088","OBJECT_TYPE":"PAYLOAD","REF_FRAME":"TEME","ARG_OF_PERICENTER":"67.4065","MEAN_MOTION":"15.06391352","CLASSIFICATION_TYPE":"U","TIME_SYSTEM":"UTC","OBJECT_ID":"2021-041W","EPOCH":"2022-04-27T14:33:12.871872","REV_AT_EPOCH":"5236","MEAN_MOTION_DDOT":"0.0000000000000","SITE":"AFETR","DECAY_DATE":null,"CENTER_NAME":"EARTH","APOAPSIS":"548.313","PERIOD":"95.593","NORAD_CAT_ID":"48573","OBJECT_NAME":"STARLINK-2224","TLE_LINE2":"2 48573  53.0559 350.6960 0001550  67.4065 292.7088 15.06391352 52361","RA_OF_ASC_NODE":"350.6960","COUNTRY_CODE":"US","INCLINATION":"53.0559","BSTAR":"0.00006750300000","RCS_SIZE":"LARGE","ECCENTRICITY":"0.00015500","GP_ID":"202158639","TLE_LINE1":"1 48573U 21041W   22117.60639898  .00000724  00000-0  67503-4 0  9995","EPHEMERIS_TYPE":"0","SEMIMAJOR_AXIS":"6925.375","PERIAPSIS":"546.167","MEAN_MOTION_DOT":"0.00000724","FILE":"3418497"},{"TLE_LINE2":"2 48574  53.0542 320.8063 0001594  68.2766  16.9276 15.06378089  3590","RA_OF_ASC_NODE":"320.8063","COUNTRY_CODE":"US","INCLINATION":"53.0542","BSTAR":"0.00178660000000","RCS_SIZE":"LARGE","ECCENTRICITY":"0.00015940","GP_ID":"202158384","EPHEMERIS_TYPE":"0","TLE_LINE1":"1 48574U 21041X   22117.58335648  .00026414  00000-0  17866-2 0  9998","SEMIMAJOR_AXIS":"6925.416","PERIAPSIS":"546.177","MEAN_MOTION_DOT":"0.00026414","FILE":"3418497","ELEMENT_SET_NO":"999","LAUNCH_DATE":"2021-05-15","MEAN_ELEMENT_THEORY":"SGP4","MEAN_ANOMALY":"16.9276","OBJECT_TYPE":"PAYLOAD","REF_FRAME":"TEME","ARG_OF_PERICENTER":"68.2766","CLASSIFICATION_TYPE":"U","MEAN_MOTION":"15.06378089","TIME_SYSTEM":"UTC","OBJECT_ID":"2021-041X","EPOCH":"2022-04-27T14:00:01.999872","MEAN_MOTION_DDOT":"0.0000000000000","REV_AT_EPOCH":"359","SITE":"AFETR","CENTER_NAME":"EARTH","DECAY_DATE":null,"APOAPSIS":"548.385","PERIOD":"95.594","NORAD_CAT_ID":"48574","OBJECT_NAME":"STARLINK-2225"},{"RA_OF_ASC_NODE":"310.8178","COUNTRY_CODE":"US","INCLINATION":"53.0533","TLE_LINE2":"2 48575  53.0533 310.8178 0001461  76.8312  43.3756 15.06381414  3595","SEMIMAJOR_AXIS":"6925.406","PERIAPSIS":"546.259","MEAN_MOTION_DOT":"0.00010260","FILE":"3418497","BSTAR":"0.00070706000000","RCS_SIZE":"LARGE","ECCENTRICITY":"0.00014610","GP_ID":"202157138","EPHEMERIS_TYPE":"0","TLE_LINE1":"1 48575U 21041Y   22117.58335648  .00010260  00000-0  70706-3 0  9994","TIME_SYSTEM":"UTC","OBJECT_ID":"2021-041Y","EPOCH":"2022-04-27T14:00:01.999872","ELEMENT_SET_NO":"999","LAUNCH_DATE":"2021-05-15","MEAN_ELEMENT_THEORY":"SGP4","MEAN_ANOMALY":"43.3756","OBJECT_TYPE":"PAYLOAD","REF_FRAME":"TEME","ARG_OF_PERICENTER":"76.8312","MEAN_MOTION":"15.06381414","CLASSIFICATION_TYPE":"U","NORAD_CAT_ID":"48575","OBJECT_NAME":"STARLINK-2227","MEAN_MOTION_DDOT":"0.0000000000000","REV_AT_EPOCH":"359","SITE":"AFETR","DECAY_DATE":null,"CENTER_NAME":"EARTH","APOAPSIS":"548.282","PERIOD":"95.593"},{"OBJECT_NAME":"STARLINK-2228","NORAD_CAT_ID":"48576","DECAY_DATE":null,"CENTER_NAME":"EARTH","APOAPSIS":"548.315","PERIOD":"95.593","MEAN_MOTION_DDOT":"0.0000000000000","REV_AT_EPOCH":"5316","SITE":"AFETR","EPOCH":"2022-04-27T14:00:01.999872","TIME_SYSTEM":"UTC","OBJECT_ID":"2021-041Z","ARG_OF_PERICENTER":"58.9282","CLASSIFICATION_TYPE":"U","MEAN_MOTION":"15.06393944","LAUNCH_DATE":"2021-05-15","MEAN_ELEMENT_THEORY":"SGP4","ELEMENT_SET_NO":"999","MEAN_ANOMALY":"253.6565","REF_FRAME":"TEME","OBJECT_TYPE":"PAYLOAD","PERIAPSIS":"546.149","MEAN_MOTION_DOT":"0.00004858","FILE":"3418296","SEMIMAJOR_AXIS":"6925.367","TLE_LINE1":"1 48576U 21041Z   22117.58335648  .00004858  00000-0  34487-3 0  9997","EPHEMERIS_TYPE":"0","BSTAR":"0.00034487000000","RCS_SIZE":"LARGE","ECCENTRICITY":"0.00015640","GP_ID":"202132540","INCLINATION":"53.0587","RA_OF_ASC_NODE":"325.7562","COUNTRY_CODE":"US","TLE_LINE2":"2 48576  53.0587 325.7562 0001564  58.9282 253.6565 15.06393944 53161"},{"NORAD_CAT_ID":"48577","OBJECT_NAME":"STARLINK-2231","REV_AT_EPOCH":"5284","MEAN_MOTION_DDOT":"0.0000000000000","SITE":"AFETR","CENTER_NAME":"EARTH","DECAY_DATE":null,"APOAPSIS":"548.259","PERIOD":"95.592","TIME_SYSTEM":"UTC","OBJECT_ID":"2021-041AA","EPOCH":"2022-04-27T19:09:13.254912","LAUNCH_DATE":"2021-05-15","MEAN_ANOMALY":"293.9834","ELEMENT_SET_NO":"999","MEAN_ELEMENT_THEORY":"SGP4","REF_FRAME":"TEME","OBJECT_TYPE":"PAYLOAD","ARG_OF_PERICENTER":"66.1311","MEAN_MOTION":"15.06396817","CLASSIFICATION_TYPE":"U","SEMIMAJOR_AXIS":"6925.358","PERIAPSIS":"546.188","MEAN_MOTION_DOT":"0.00003798","FILE":"3418751","BSTAR":"0.00027376000000","ECCENTRICITY":"0.00014950","RCS_SIZE":"LARGE","GP_ID":"202167258","EPHEMERIS_TYPE":"0","TLE_LINE1":"1 48577U 21041AA  22117.79807008  .00003798  00000-0  27376-3 0  9996","RA_OF_ASC_NODE":"349.8404","COUNTRY_CODE":"US","INCLINATION":"53.0546","TLE_LINE2":"2 48577  53.0546 349.8404 0001495  66.1311 293.9834 15.06396817 52848"},{"OBJECT_NAME":"STARLINK-2232","NORAD_CAT_ID":"48578","DECAY_DATE":null,"CENTER_NAME":"EARTH","APOAPSIS":"548.241","PERIOD":"95.592","MEAN_MOTION_DDOT":"0.0000000000000","REV_AT_EPOCH":"5236","SITE":"AFETR","EPOCH":"2022-04-27T13:54:41.706432","TIME_SYSTEM":"UTC","OBJECT_ID":"2021-041AB","ARG_OF_PERICENTER":"64.8191","CLASSIFICATION_TYPE":"U","MEAN_MOTION":"15.06398600","ELEMENT_SET_NO":"999","LAUNCH_DATE":"2021-05-15","MEAN_ELEMENT_THEORY":"SGP4","MEAN_ANOMALY":"295.2951","OBJECT_TYPE":"PAYLOAD","REF_FRAME":"TEME","PERIAPSIS":"546.195","MEAN_MOTION_DOT":"0.00001425","FILE":"3418497","SEMIMAJOR_AXIS":"6925.353","TLE_LINE1":"1 48578U 21041AB  22117.57964938  .00001425  00000-0  11457-3 0  9997","EPHEMERIS_TYPE":"0","BSTAR":"0.00011457000000","RCS_SIZE":"LARGE","ECCENTRICITY":"0.00014770","GP_ID":"202158885","INCLINATION":"53.0559","RA_OF_ASC_NODE":"350.8354","COUNTRY_CODE":"US","TLE_LINE2":"2 48578  53.0559 350.8354 0001477  64.8191 295.2951 15.06398600 52364"},{"OBJECT_TYPE":"PAYLOAD","REF_FRAME":"TEME","LAUNCH_DATE":"2021-05-15","ELEMENT_SET_NO":"999","MEAN_ELEMENT_THEORY":"SGP4","MEAN_ANOMALY":"293.4739","MEAN_MOTION":"15.06405655","CLASSIFICATION_TYPE":"U","ARG_OF_PERICENTER":"66.6401","OBJECT_ID":"2021-041AC","TIME_SYSTEM":"UTC","EPOCH":"2022-04-27T20:28:49.601568","SITE":"AFETR","REV_AT_EPOCH":"5285","MEAN_MOTION_DDOT":"0.0000000000000","PERIOD":"95.592","APOAPSIS":"548.193","CENTER_NAME":"EARTH","DECAY_DATE":null,"NORAD_CAT_ID":"48579","OBJECT_NAME":"STARLINK-2233","TLE_LINE2":"2 48579  53.0556 349.6061 0001440  66.6401 293.4739 15.06405655 52854","COUNTRY_CODE":"US","RA_OF_ASC_NODE":"349.6061","INCLINATION":"53.0556","GP_ID":"202167259","RCS_SIZE":"LARGE","ECCENTRICITY":"0.00014400","BSTAR":"0.00030118000000","EPHEMERIS_TYPE":"0","TLE_LINE1":"1 48579U 21041AC  22117.85335187  .00004208  00000-0  30118-3 0  9994","SEMIMAJOR_AXIS":"6925.331","FILE":"3418751","MEAN_MOTION_DOT":"0.00004208","PERIAPSIS":"546.199"},{"ARG_OF_PERICENTER":"83.6243","MEAN_MOTION":"15.06379036","CLASSIFICATION_TYPE":"U","MEAN_ELEMENT_THEORY":"SGP4","LAUNCH_DATE":"2021-05-15","ELEMENT_SET_NO":"999","MEAN_ANOMALY":"82.7407","OBJECT_TYPE":"PAYLOAD","REF_FRAME":"TEME","EPOCH":"2022-04-27T22:00:00.999936","TIME_SYSTEM":"UTC","OBJECT_ID":"2021-041AD","APOAPSIS":"548.324","CENTER_NAME":"EARTH","DECAY_DATE":null,"PERIOD":"95.593","MEAN_MOTION_DDOT":"0.0000000000000","REV_AT_EPOCH":"5321","SITE":"AFETR","OBJECT_NAME":"STARLINK-2234","NORAD_CAT_ID":"48580","TLE_LINE2":"2 48580  53.0535 324.3318 0001511  83.6243  82.7407 15.06379036 53215","INCLINATION":"53.0535","RA_OF_ASC_NODE":"324.3318","COUNTRY_CODE":"US","EPHEMERIS_TYPE":"0","TLE_LINE1":"1 48580U 21041AD  22117.91667824  .00020235  00000-0  13742-2 0  9990","ECCENTRICITY":"0.00015110","RCS_SIZE":"LARGE","BSTAR":"0.00137420000000","GP_ID":"202167754","PERIAPSIS":"546.231","FILE":"3418751","MEAN_MOTION_DOT":"0.00020235","SEMIMAJOR_AXIS":"6925.413"},{"RA_OF_ASC_NODE":"314.3232","COUNTRY_CODE":"US","INCLINATION":"53.0530","TLE_LINE2":"2 48581  53.0530 314.3232 0001439  68.8106 312.5043 15.06394561 53363","SEMIMAJOR_AXIS":"6925.365","PERIAPSIS":"546.234","FILE":"3418751","MEAN_MOTION_DOT":"0.00014904","RCS_SIZE":"LARGE","ECCENTRICITY":"0.00014390","BSTAR":"0.00101750000000","GP_ID":"202167757","TLE_LINE1":"1 48581U 21041AE  22117.91667824  .00014904  00000-0  10175-2 0  9994","EPHEMERIS_TYPE":"0","TIME_SYSTEM":"UTC","OBJECT_ID":"2021-041AE","EPOCH":"2022-04-27T22:00:00.999936","ELEMENT_SET_NO":"999","LAUNCH_DATE":"2021-05-15","MEAN_ANOMALY":"312.5043","MEAN_ELEMENT_THEORY":"SGP4","OBJECT_TYPE":"PAYLOAD","REF_FRAME":"TEME","ARG_OF_PERICENTER":"68.8106","CLASSIFICATION_TYPE":"U","MEAN_MOTION":"15.06394561","NORAD_CAT_ID":"48581","OBJECT_NAME":"STARLINK-2235","MEAN_MOTION_DDOT":"0.0000000000000","REV_AT_EPOCH":"5336","SITE":"AFETR","APOAPSIS":"548.227","CENTER_NAME":"EARTH","DECAY_DATE":null,"PERIOD":"95.592"}];
